COMMENT,ORIGINATOR,NORAD_CAT_ID,OBJECT_NAME,OBJECT_TYPE,CLASSIFICATION_TYPE,INTLDES,EPOCH,EPOCH_MICROSECONDS,MEAN_MOTION,ECCENTRICITY,INCLINATION,RA_OF_ASC_NODE,ARG_OF_PERICENTER,MEAN_ANOMALY,EPHEMERIS_TYPE,ELEMENT_SET_NO,REV_AT_EPOCH,BSTAR,MEAN_MOTION_DOT,MEAN_MOTION_DDOT,FILE,TLE_LINE0,TLE_LINE1,TLE_LINE2,OBJECT_ID,OBJECT_NUMBER,SEMIMAJOR_AXIS,PERIOD,APOGEE,PERIGEE,DECAYED
"GENERATED VIA SPACETRACK.ORG API","18 SPCS","48884","SPACEBEE-101","PAYLOAD","U","21059F","2022-04-13 21:06:22","207680","15.14299618","0.0007724","97.5444","233.8922","336.3895","23.6981","0","999","4415","0.00046418","0.00008441","0","3400454","0 SPACEBEE-101","1 48884U 21059F   22103.87942370  .00008441  00000-0  46418-3 0  9990","2 48884  97.5444 233.8922 0007724 336.3895  23.6981 15.14299618 44152","2021-059F","48884","6901.243","95.093","528.438","517.777","0"
"GENERATED VIA SPACETRACK.ORG API","18 SPCS","48884","SPACEBEE-101","PAYLOAD","U","21059F","2022-04-14 08:12:26","621856","15.14306657","0.0007721","97.5445","234.3508","334.5162","25.5688","0","999","4422","0.00042655","0.00007752","0","3401191","0 SPACEBEE-101","1 48884U 21059F   22104.34197479  .00007752  00000-0  42655-3 0  9998","2 48884  97.5445 234.3508 0007721 334.5162  25.5688 15.14306657 44228","2021-059F","48884","6901.221","95.093","528.415","517.758","0"
"GENERATED VIA SPACETRACK.ORG API","18 SPCS","48884","SPACEBEE-101","PAYLOAD","U","21059F","2022-04-14 14:33:03","328128","15.14313087","0.0007698","97.5446","234.6128","333.482","26.6017","0","999","4426","0.0004911","0.00008938","0","3401567","0 SPACEBEE-101","1 48884U 21059F   22104.60628852  .00008938  00000-0  49110-3 0  9991","2 48884  97.5446 234.6128 0007698 333.4820  26.6017 15.14313087 44269","2021-059F","48884","6901.202","95.093","528.379","517.754","0"
"GENERATED VIA SPACETRACK.ORG API","18 SPCS","48884","SPACEBEE-101","PAYLOAD","U","21059F","2022-04-15 14:20:20","182848","15.14332923","0.0007636","97.5448","235.5953","329.3602","30.7183","0","999","4441","0.00049509","0.00009016","0","3403095","0 SPACEBEE-101","1 48884U 21059F   22105.59745582  .00009016  00000-0  49509-3 0  9990","2 48884  97.5448 235.5953 0007636 329.3602  30.7183 15.14332923 44418","2021-059F","48884","6901.141","95.091","528.276","517.737","0"
"GENERATED VIA SPACETRACK.ORG API","18 SPCS","48884","SPACEBEE-101","PAYLOAD","U","21059F","2022-04-15 14:20:20","182848","15.14332923","0.0007636","97.5448","235.5953","329.3602","30.7183","0","999","4441","0.00049509","0.00009016","0","3403201","0 SPACEBEE-101","1 48884U 21059F   22105.59745582  .00009016  00000-0  49509-3 0  9990","2 48884  97.5448 235.5953 0007636 329.3602  30.7183 15.14332923 44418","2021-059F","48884","6901.141","95.091","528.276","517.737","0"
"GENERATED VIA SPACETRACK.ORG API","18 SPCS","48884","SPACEBEE-101","PAYLOAD","U","21059F","2022-04-15 22:16:05","515968","15.14341011","0.0007633","97.5449","235.9229","327.934","32.1426","0","999","4446","0.00051869","0.00009452","0","3403567","0 SPACEBEE-101","1 48884U 21059F   22105.92784162  .00009452  00000-0  51869-3 0  9990","2 48884  97.5449 235.9229 0007633 327.9340  32.1426 15.14341011 44468","2021-059F","48884","6901.117","95.091","528.250","517.714","0"
"GENERATED VIA SPACETRACK.ORG API","18 SPCS","48884","SPACEBEE-101","PAYLOAD","U","21059F","2022-04-16 14:07:35","876352","15.14352526","0.0007623","97.5452","236.5779","325.2518","34.8214","0","999","4456","0.00045147","0.0000822","0","3404318","0 SPACEBEE-101","1 48884U 21059F   22106.58860968  .00008220  00000-0  45147-3 0  9996","2 48884  97.5452 236.5779 0007623 325.2518  34.8214 15.14352526 44564","2021-059F","48884","6901.082","95.090","528.208","517.686","0"
"GENERATED VIA SPACETRACK.ORG API","18 SPCS","48884","SPACEBEE-101","PAYLOAD","U","21059F","2022-04-16 20:28:11","903520","15.14358076","0.0007627","97.5453","236.8399","324.0756","35.9962","0","999","4460","0.00046814","0.00008527","0","3404767","0 SPACEBEE-101","1 48884U 21059F   22106.85291555  .00008527  00000-0  46814-3 0  9998","2 48884  97.5453 236.8399 0007627 324.0756  35.9962 15.14358076 44604","2021-059F","48884","6901.065","95.090","528.194","517.667","0"
"GENERATED VIA SPACETRACK.ORG API","18 SPCS","48884","SPACEBEE-101","PAYLOAD","U","21059F","2022-04-17 04:23:56","845248","15.14364073","0.0007623","97.5455","237.1675","322.7637","37.3066","0","999","4465","0.00048559","0.00008849","0","3404857","0 SPACEBEE-101","1 48884U 21059F   22107.18329682  .00008849  00000-0  48559-3 0  9993","2 48884  97.5455 237.1675 0007623 322.7637  37.3066 15.14364073 44656","2021-059F","48884","6901.047","95.089","528.173","517.651","0"
"GENERATED VIA SPACETRACK.ORG API","18 SPCS","48884","SPACEBEE-101","PAYLOAD","U","21059F","2022-04-17 07:34:14","792736","15.14366476","0.0007627","97.5455","237.2984","322.0932","37.9762","0","999","4467","0.00049401","0.00009005","0","3405596","0 SPACEBEE-101","1 48884U 21059F   22107.31544899  .00009005  00000-0  49401-3 0  9999","2 48884  97.5455 237.2984 0007627 322.0932  37.9762 15.14366476 44675","2021-059F","48884","6901.040","95.089","528.168","517.641","0"
"GENERATED VIA SPACETRACK.ORG API","18 SPCS","48884","SPACEBEE-101","PAYLOAD","U","21059F","2022-04-17 21:50:35","361600","15.14377311","0.0007601","97.5459","237.888","319.9176","40.1495","0","999","4476","0.00051387","0.00009373","0","3405839","0 SPACEBEE-101","1 48884U 21059F   22107.91013150  .00009373  00000-0  51387-3 0  9990","2 48884  97.5459 237.8880 0007601 319.9176  40.1495 15.14377311 44766","2021-059F","48884","6901.007","95.089","528.117","517.626","0"
"GENERATED VIA SPACETRACK.ORG API","18 SPCS","48884","SPACEBEE-101","PAYLOAD","U","21059F","2022-04-18 07:21:28","874880","15.14383694","0.0007576","97.546","238.2811","318.5016","41.564","0","999","4482","0.00049434","0.00009015","0","3406573","0 SPACEBEE-101","1 48884U 21059F   22108.30658420  .00009015  00000-0  49434-3 0  9992","2 48884  97.5460 238.2811 0007576 318.5016  41.5640 15.14383694 44821","2021-059F","48884","6900.987","95.088","528.080","517.624","0"
"GENERATED VIA SPACETRACK.ORG API","18 SPCS","48884","SPACEBEE-101","PAYLOAD","U","21059F","2022-04-18 07:21:28","874880","15.14383694","0.0007576","97.546","238.2811","318.5016","41.564","0","999","4482","0.00049434","0.00009015","0","3406909","0 SPACEBEE-101","1 48884U 21059F   22108.30658420  .00009015  00000-0  49434-3 0  9992","2 48884  97.5460 238.2811 0007576 318.5016  41.5640 15.14383694 44821","2021-059F","48884","6900.987","95.088","528.080","517.624","0"
"GENERATED VIA SPACETRACK.ORG API","18 SPCS","48884","SPACEBEE-101","PAYLOAD","U","21059F","2022-04-18 20:02:39","933888","15.1439498","0.0007553","97.5463","238.8053","316.7329","43.3309","0","999","4490","0.00053449","0.00009757","0","3407402","0 SPACEBEE-101","1 48884U 21059F   22108.83518442  .00009757  00000-0  53449-3 0  9993","2 48884  97.5463 238.8053 0007553 316.7329  43.3309 15.14394980 44901","2021-059F","48884","6900.953","95.087","528.030","517.606","0"
"GENERATED VIA SPACETRACK.ORG API","18 SPCS","48884","SPACEBEE-101","PAYLOAD","U","21059F","2022-04-19 08:43:50","653344","15.14406437","0.0007496","97.5465","239.3294","314.6685","45.3935","0","999","4498","0.0005675","0.00010368","0","3408030","0 SPACEBEE-101","1 48884U 21059F   22109.36378071  .00010368  00000-0  56750-3 0  9992","2 48884  97.5465 239.3294 0007496 314.6685  45.3935 15.14406437 44980","2021-059F","48884","6900.918","95.087","527.956","517.610","0"
"GENERATED VIA SPACETRACK.ORG API","18 SPCS","48884","SPACEBEE-101","PAYLOAD","U","21059F","2022-04-19 08:43:50","653344","15.14406437","0.0007496","97.5465","239.3294","314.6685","45.3935","0","999","4498","0.0005675","0.00010368","0","3408368","0 SPACEBEE-101","1 48884U 21059F   22109.36378071  .00010368  00000-0  56750-3 0  9992","2 48884  97.5465 239.3294 0007496 314.6685  45.3935 15.14406437 44980","2021-059F","48884","6900.918","95.087","527.956","517.610","0"
"GENERATED VIA SPACETRACK.ORG API","18 SPCS","48884","SPACEBEE-101","PAYLOAD","U","21059F","2022-04-20 14:51:37","431072","15.14429862","0.0007392","97.5467","240.5744","309.9056","50.1525","0","999","4517","0.00053659","0.00009805","0","3409639","0 SPACEBEE-101","1 48884U 21059F   22110.61918323  .00009805  00000-0  53659-3 0  9991","2 48884  97.5467 240.5744 0007392 309.9056  50.1525 15.14429862 45178","2021-059F","48884","6900.847","95.085","527.813","517.611","0"
"GENERATED VIA SPACETRACK.ORG API","18 SPCS","48884","SPACEBEE-101","PAYLOAD","U","21059F","2022-04-20 14:51:37","431072","15.14429862","0.0007392","97.5467","240.5744","309.9056","50.1525","0","999","4517","0.00053659","0.00009805","0","3409725","0 SPACEBEE-101","1 48884U 21059F   22110.61918323  .00009805  00000-0  53659-3 0  9991","2 48884  97.5467 240.5744 0007392 309.9056  50.1525 15.14429862 45178","2021-059F","48884","6900.847","95.085","527.813","517.611","0"
"GENERATED VIA SPACETRACK.ORG API","18 SPCS","48884","SPACEBEE-101","PAYLOAD","U","21059F","2022-04-21 08:18:13","192128","15.14444976","0.0007362","97.5465","241.2953","307.1179","52.9379","0","999","4528","0.000574","0.00010498","0","3410449","0 SPACEBEE-101","1 48884U 21059F   22111.34598602  .00010498  00000-0  57400-3 0  9994","2 48884  97.5465 241.2953 0007362 307.1179  52.9379 15.14444976 45281","2021-059F","48884","6900.801","95.084","527.746","517.586","0"
"GENERATED VIA SPACETRACK.ORG API","18 SPCS","48884","SPACEBEE-101","PAYLOAD","U","21059F","2022-04-21 14:38:47","848992","15.14450458","0.0007351","97.5465","241.5575","306.088","53.967","0","999","4532","0.00057929","0.00010598","0","3410450","0 SPACEBEE-101","1 48884U 21059F   22111.61027603  .00010598  00000-0  57929-3 0  9999","2 48884  97.5465 241.5575 0007351 306.0880  53.9670 15.14450458 45321","2021-059F","48884","6900.784","95.084","527.722","517.577","0"
